{"type": "FeatureCollection", "features": [ {"type": "Feature", "properties": {"norad_id": 37216, "name": "COSMO-SKYMED 4", "group": "resource", "lat": 5.287409732287529, "lon": 2.165198523642576, "alt_km": 624.8777011752827, "timestamp": "2025-12-26T07:29:18.116484+00:00", "meta": {"OBJECT_NAME": "COSMO-SKYMED 4", "OBJECT_ID": "2010-060A", "EPOCH": "2025-12-25T22:36:08.209152", "MEAN_MOTION": 14.82163185, "ECCENTRICITY": 0.00014073, "INCLINATION": 97.8806, "RA_OF_ASC_NODE": 181.0662, "ARG_OF_PERICENTER": 81.7921, "MEAN_ANOMALY": 278.3452, "EPHEMERIS_TYPE": 0, "CLASSIFICATION_TYPE": "U", "NORAD_CAT_ID": 37216, "ELEMENT_SET_NO": 999, "REV_AT_EPOCH": 81890, "BSTAR": 0.00018194851, "MEAN_MOTION_DOT": 1.397e-05, "MEAN_MOTION_DDOT": 0}, "tle": {"line1": "1 37216U 10060A   25359.94176168  .00001397  00000+0  18195-3 0  9998", "line2": "2 37216  97.8806 181.0662 0001407  81.7921 278.3452 14.82163185818909"}}, "geometry": {"type": "Point", "coordinates": [2.165198523642576, 5.287409732287529]}}, {"type": "Feature", "properties": {"norad_id": 37387, "name": "RESOURCESAT-2", "group": "resource", "lat": 64.41971818385554, "lon": 44.95278124155572, "alt_km": 811.5810684088983, "timestamp": "2025-12-26T07:29:18.116494+00:00", "meta": {"OBJECT_NAME": "RESOURCESAT-2", "OBJECT_ID": "2011-015A", "EPOCH": "2025-12-25T21:02:41.162784", "MEAN_MOTION": 14.21602242, "ECCENTRICITY": 0.00057777, "INCLINATION": 98.7859, "RA_OF_ASC_NODE": 63.3687, "ARG_OF_PERICENTER": 6.506, "MEAN_ANOMALY": 353.6191, "EPHEMERIS_TYPE": 0, "CLASSIFICATION_TYPE": "U", "NORAD_CAT_ID": 37387, "ELEMENT_SET_NO": 999, "REV_AT_EPOCH": 76155, "BSTAR": 7.8419274e-05, "MEAN_MOTION_DOT": 1.27e-06, "MEAN_MOTION_DDOT": 0}, "tle": {"line1": "1 37387U 11015A   25359.87686531  .00000127  00000+0  78419-4 0  9996", "line2": "2 37387  98.7859  63.3687 0005777   6.5060 353.6191 14.21602242761558"}}, "geometry": {"type": "Point", "coordinates": [44.95278124155572, 64.41971818385554]}}, {"type": "Feature", "properties": {"norad_id": 37781, "name": "HAIYANG-2A", "group": "resource", "lat": -7.600379852574324, "lon": 179.7791232175987, "alt_km": 972.4028453135743, "timestamp": "2025-12-26T07:29:18.116504+00:00", "meta": {"OBJECT_NAME": "HAIYANG-2A", "OBJECT_ID": "2011-043A", "EPOCH": "2025-12-25T23:36:55.836576", "MEAN_MOTION": 13.78835846, "ECCENTRICITY": 0.00015602, "INCLINATION": 99.338, "RA_OF_ASC_NODE": 0.7142, "ARG_OF_PERICENTER": 66.3452, "MEAN_ANOMALY": 293.7863, "EPHEMERIS_TYPE": 0, "CLASSIFICATION_TYPE": "U", "NORAD_CAT_ID": 37781, "ELEMENT_SET_NO": 999, "REV_AT_EPOCH": 72281, "BSTAR": -0.00016284573, "MEAN_MOTION_DOT": -2.1e-06, "MEAN_MOTION_DDOT": 0}, "tle": {"line1": "1 37781U 11043A   25359.98397959 -.00000210  00000+0 -16285-3 0  9997", "line2": "2 37781  99.3380   0.7142 0001560  66.3452 293.7863 13.78835846722813"}}, "geometry": {"type": "Point", "coordinates": [179.7791232175987, -7.600379852574324]}}, {"type": "Feature", "properties": {"norad_id": 37791, "name": "RASAT", "group": "resource", "lat": -30.314673324825854, "lon": 94.12275168301723, "alt_km": 664.9161873538269, "timestamp": "2025-12-26T07:29:18.116515+00:00", "meta": {"OBJECT_NAME": "RASAT", "OBJECT_ID": "2011-044D", "EPOCH": "2025-12-25T22:18:53.793792", "MEAN_MOTION": 14.67927688, "ECCENTRICITY": 0.00212755, "INCLINATION": 98.064, "RA_OF_ASC_NODE": 88.9913, "ARG_OF_PERICENTER": 25.0384, "MEAN_ANOMALY": 85.9413, "EPHEMERIS_TYPE": 0, "CLASSIFICATION_TYPE": "U", "NORAD_CAT_ID": 37791, "ELEMENT_SET_NO": 999, "REV_AT_EPOCH": 76776, "BSTAR": 0.00014774059, "MEAN_MOTION_DOT": 7.99e-06, "MEAN_MOTION_DDOT": 0}, "tle": {"line1": "1 37791U 11044D   25359.92978928  .00000799  00000+0  14774-3 0  9995", "line2": "2 37791  98.0640  88.9913 0021275  25.0384  85.9413 14.67927688767764"}}, "geometry": {"type": "Point", "coordinates": [94.12275168301723, -30.314673324825854]}}, {"type": "Feature", "properties": {"norad_id": 37841, "name": "SRMSAT", "group": "resource", "lat": 18.76701846023849, "lon": 95.12516245546415, "alt_km": 841.7428122477504, "timestamp": "2025-12-26T07:29:18.116525+00:00", "meta": {"OBJECT_NAME": "SRMSAT", "OBJECT_ID": "2011-058D", "EPOCH": "2025-12-25T10:55:52.472352", "MEAN_MOTION": 14.11515651, "ECCENTRICITY": 0.0011992, "INCLINATION": 19.9731, "RA_OF_ASC_NODE": 30.9947, "ARG_OF_PERICENTER": 92.4725, "MEAN_ANOMALY": 296.1471, "EPHEMERIS_TYPE": 0, "CLASSIFICATION_TYPE": "U", "NORAD_CAT_ID": 37841, "ELEMENT_SET_NO": 999, "REV_AT_EPOCH": 73324, "BSTAR": 9.1991e-05, "MEAN_MOTION_DOT": 4.34e-06, "MEAN_MOTION_DDOT": 0}, "tle": {"line1": "1 37841U 11058D   25359.45546843  .00000434  00000+0  91991-4 0  9994", "line2": "2 37841  19.9731  30.9947 0011992  92.4725 296.1471 14.11515651733247"}}, "geometry": {"type": "Point", "coordinates": [95.12516245546415, 18.76701846023849]}}, {"type": "Feature", "properties": {"norad_id": 38012, "name": "PLEIADES 1A", "group": "resource", "lat": 28.22537552769077, "lon": 68.44166856311764, "alt_km": 696.0200385844655, "timestamp": "2025-12-26T07:29:18.116535+00:00", "meta": {"OBJECT_NAME": "PLEIADES 1A", "OBJECT_ID": "2011-076F", "EPOCH": "2025-12-25T23:29:09.401856", "MEAN_MOTION": 14.58572503, "ECCENTRICITY": 0.00010818, "INCLINATION": 98.1805, "RA_OF_ASC_NODE": 72.5419, "ARG_OF_PERICENTER": 77.1574, "MEAN_ANOMALY": 1.7154, "EPHEMERIS_TYPE": 0, "CLASSIFICATION_TYPE": "U", "NORAD_CAT_ID": 38012, "ELEMENT_SET_NO": 999, "REV_AT_EPOCH": 74674, "BSTAR": 5.9825974e-05, "MEAN_MOTION_DOT": 2.33e-06, "MEAN_MOTION_DDOT": 0}, "tle": {"line1": "1 38012U 11076F   25359.97858104  .00000233  00000+0  59826-4 0  9996", "line2": "2 38012  98.1805  72.5419 0001081  77.1574   1.7154 14.58572503746742"}}, "geometry": {"type": "Point", "coordinates": [68.44166856311764, 28.22537552769077]}}, {"type": "Feature", "properties": {"norad_id": 38038, "name": "ZIYUAN 1-02C (ZY 1-02C)", "group": "resource", "lat": 13.771428350941328, "lon": 63.99091625263905, "alt_km": 765.9153490824401, "timestamp": "2025-12-26T07:29:18.116545+00:00", "meta": {"OBJECT_NAME": "ZIYUAN 1-02C (ZY 1-02C)", "OBJECT_ID": "2011-079A", "EPOCH": "2025-12-25T23:38:54.170016", "MEAN_MOTION": 14.38025976, "ECCENTRICITY": 0.00075632, "INCLINATION": 98.4313, "RA_OF_ASC_NODE": 65.7537, "ARG_OF_PERICENTER": 103.9491, "MEAN_ANOMALY": 20.0364, "EPHEMERIS_TYPE": 0, "CLASSIFICATION_TYPE": "U", "NORAD_CAT_ID": 38038, "ELEMENT_SET_NO": 999, "REV_AT_EPOCH": 73431, "BSTAR": 0.0001368518, "MEAN_MOTION_DOT": 3.71e-06, "MEAN_MOTION_DDOT": 0}, "tle": {"line1": "1 38038U 11079A   25359.98534919  .00000371  00000+0  13685-3 0  9998", "line2": "2 38038  98.4313  65.7537 0007563 103.9491  20.0364 14.38025976734311"}}, "geometry": {"type": "Point", "coordinates": [63.99091625263905, 13.771428350941328]}}, {"type": "Feature", "properties": {"norad_id": 38338, "name": "ARIRANG-3 (KOMPSAT-3)", "group": "resource", "lat": 77.11223242628812, "lon": -84.83677293335028, "alt_km": 683.200171841876, "timestamp": "2025-12-26T07:29:18.116556+00:00", "meta": {"OBJECT_NAME": "ARIRANG-3 (KOMPSAT-3)", "OBJECT_ID": "2012-025B", "EPOCH": "2025-12-25T22:54:31.286592", "MEAN_MOTION": 14.61729459, "ECCENTRICITY": 0.00046783, "INCLINATION": 98.3341, "RA_OF_ASC_NODE": 314.6448, "ARG_OF_PERICENTER": 290.9099, "MEAN_ANOMALY": 69.16, "EPHEMERIS_TYPE": 0, "CLASSIFICATION_TYPE": "U", "NORAD_CAT_ID": 38338, "ELEMENT_SET_NO": 999, "REV_AT_EPOCH": 72603, "BSTAR": 0.00013047396, "MEAN_MOTION_DOT": 6.02e-06, "MEAN_MOTION_DDOT": 0}, "tle": {"line1": "1 38338U 12025B   25359.95452878  .00000602  00000+0  13047-3 0  9992", "line2": "2 38338  98.3341 314.6448 0004678 290.9099  69.1600 14.61729459726036"}}, "geometry": {"type": "Point", "coordinates": [-84.83677293335028, 77.11223242628812]}}, {"type": "Feature", "properties": {"norad_id": 38709, "name": "EXACTVIEW-1 (ADS-1B)", "group": "resource", "lat": 78.381864995646, "lon": 58.83976629786241, "alt_km": 806.0189832009683, "timestamp": "2025-12-26T07:29:18.116566+00:00", "meta": {"OBJECT_NAME": "EXACTVIEW-1 (ADS-1B)", "OBJECT_ID": "2012-039C", "EPOCH": "2025-12-25T20:59:26.610720", "MEAN_MOTION": 14.24913142, "ECCENTRICITY": 0.00101081, "INCLINATION": 98.9638, "RA_OF_ASC_NODE": 108.5404, "ARG_OF_PERICENTER": 314.6853, "MEAN_ANOMALY": 45.3501, "EPHEMERIS_TYPE": 0, "CLASSIFICATION_TYPE": "U", "NORAD_CAT_ID": 38709, "ELEMENT_SET_NO": 999, "REV_AT_EPOCH": 69802, "BSTAR": 8.8694024e-05, "MEAN_MOTION_DOT": 1.61e-06, "MEAN_MOTION_DDOT": 0}, "tle": {"line1": "1 38709U 12039C   25359.87461355  .00000161  00000+0  88694-4 0  9991", "line2": "2 38709  98.9638 108.5404 0010108 314.6853  45.3501 14.24913142698028"}}, "geometry": {"type": "Point", "coordinates": [58.83976629786241, 78.381864995646]}}, {"type": "Feature", "properties": {"norad_id": 38755, "name": "SPOT 6", "group": "resource", "lat": -47.62475428229168, "lon": 73.88774651784325, "alt_km": 705.1932454165517, "timestamp": "2025-12-26T07:29:18.116575+00:00", "meta": {"OBJECT_NAME": "SPOT 6", "OBJECT_ID": "2012-047A", "EPOCH": "2025-12-25T23:28:37.310304", "MEAN_MOTION": 14.58543606, "ECCENTRICITY": 0.00012369, "INCLINATION": 98.1551, "RA_OF_ASC_NODE": 64.5172, "ARG_OF_PERICENTER": 77.3995, "MEAN_ANOMALY": 282.7343, "EPHEMERIS_TYPE": 0, "CLASSIFICATION_TYPE": "U", "NORAD_CAT_ID": 38755, "ELEMENT_SET_NO": 999, "REV_AT_EPOCH": 70780, "BSTAR": 9.5800966e-05, "MEAN_MOTION_DOT": 4e-06, "MEAN_MOTION_DDOT": 0}, "tle": {"line1": "1 38755U 12047A   25359.97820961  .00000400  00000+0  95801-4 0  9998", "line2": "2 38755  98.1551  64.5172 0001236  77.3995 282.7343 14.58543606707809"}}, "geometry": {"type": "Point", "coordinates": [73.88774651784325, -47.62475428229168]}}]}